UID,altar_Name,address,village,gps_lat,gps_lon,region,num_photos,photo_ref,pantak
,," No. 12D, RT 60",,,108.98513333333334,,,, Y 
WP2, CHIN SAN THAI BONG ," Jl. P. Diponegoro Gg. Tujuh Belas, Pasiran  No. 64, RT 56",Parisan,0.902325,108.98180833333333,West,,141, N 
WP3, NO NAME ," Jl. P. Diponegoro Gg. Tujuh Belas, Pasiran  No. 5A, RT 56",Parisan,0.9029166666666667,108.98087222222222,West,,142, N 
WP4, CHIAU SAN PAK KUNG ," Jl. P. Diponegoro Gg. Empat Lima, Pasiran  No. 12, RT 56",Parisan,0.9044,108.98314166666667,West,,144, N 
WP5, NG FU LIN CIONG ," Jl. P. Diponegoro Gg. Proklamasi, Pasiran  No. 8I, RT 50",Parisan,0.9018055555555555,108.98165277777778,West,,140, N 
WP6, FUT FAB THAN ," Jl. P. Diponegoro Gg. Wisata, Kel. Pasiran  No. 80, RT 50",Parisan,0.9008944444444444,108.9811,West,,94, Y 
WP7, KIM SAN PAK KUNG ," Jl. P. Diponegoro Gg. Wisata, Kel. Pasiran  No. 119, RT 50",Parisan,0.9016194444444444,108.98043055555556,West,,95, N 
WP8, MASTER LU  ," Jl. P. Diponegoro Gg. Agustus, Pasiran  No. 40, RT 56",Parisan,0.9034972222222223,108.98274444444445,West,,143, N 
WP9, LO ZHU SHIN TI KUNG ," Jl. P. Diponegoro Gg. Empat Lima, Pasiran  No. 33, RT 44",Parisan,0.9040583333333334,108.98379722222222,West,,145, N 
WP10, DATUK SUNGKUNG ," Jl. P. Diponegoro Gg. Empat Lima, Pasiran  No. 31, RT 44",Parisan,0.9039416666666666,108.98387777777778,West,,146, N 
WP11, BU CHIUNG CIONG KIUN ," Jl. P. Diponegoro Gg. Timur, Kel. Pasiran , RT 51",Parisan,0.8995666666666666,108.97964166666667,West,,136, N 
WP12, KONG THIAN FA NYIT ," Jl. P. Diponegoro Gg. Timur, Kel. Pasiran  No. 45, RT 51",Parisan,0.8997777777777778,108.97975277777778,West,,137, N 
WP13, LI PHAK KUNG KUNG ," Jl. Firdaus H. Rais Gg. Ardio, Kel. Pasiran  No. 73, RT 50",Parisan,0.9016416666666667,108.9798,West,,96, N 
WP14, JIM JONG THAN ," Jl. Firdaus H. Rais Gg. Ardio, Kel. Pasiran  No. 21, RT 50",Parisan,0.9014972222222223,108.97992777777777,West,,299, N 
WP15, PIT TET CIONG KIUN ," Jl. Yohana Godang Gg. Sederhana, Pasiran  No. 84, RT 48",Parisan,0.8994916666666667,108.984525,West,,114, N 
WP16, MUNG KU THAI CI ," Jl. Yohana Godang Gg. Sederhana, Pasiran  No. 82, RT 48",Parisan,0.8997166666666666,108.98440555555555,West,,298, N 
WP17, FAB SHI LIN THAN ," Jl. Tani, Kel. Pasiran  No. 99, RT 42",Parisan,0.9063805555555555,108.97343055555555,West,,210, N 
WP18, PIT TET SEN KIUN ," Jl. Tani, Kel. Pasiran  No. 86, RT 42",Parisan,0.9072138888888889,108.97400277777778,West,,211, N 
WP19, KON JIM FUT MU ," Jl. Tani Gg. Seksama 2, Kel. Pasiran  No. 102B, RT 42",Parisan,0.9087444444444445,108.97269722222222,West,,214, N 
WP20, SAM THAI THIAN BONG ," Jl. Tani Gg. Seksama 2, Kel. Pasiran  No. A6, RT 42",Parisan,0.9091222222222223,108.9739888888889,West,,212, N 
WP21, PHAK SHI KUNG KUNG ," Jl. Tani Gg. Seksama 2, Kel. Pasiran  No. A1, RT 42",Parisan,0.9089972222222222,108.97423611111111,West,,215, N 
WP22, PHAK LIAN SHI KUNG ," Jl. Tani Gg. Seksama 2, Kel. Pasiran  No. 70, RT 42",Parisan,0.9086861111111111,108.97351944444445,West,,216, N 
WP23, KON JIM FUT MU ," Jl. Tani Gg. Seksama 2, Kel. Pasiran  No. 71, RT 42",Parisan,0.9087972222222223,108.97347222222223,West,,217, N 
WP24, NYI BONG CHIAN SOI ," Jl. Tani Gg. Seksama 2, Kel. Pasiran  No. 68, RT 42",Parisan,0.9084722222222222,108.97388055555555,West,,218, N 
WP25, THAI CU SHIN TI ," Jl. Tani Gg. Seksama 2, Kel. Pasiran  No. 21, RT 42",Parisan,0.9076638888888889,108.9706861111111,West,,219, N 
WP26, CHAU KONG NYIAN SAI ," Jl. Tani Gg. Taman Buah Naga, Pasiran  No. 38, RT 40",Parisan,0.9046527777777778,108.9715638888889,West,,208, N 
WP27, NO NAME ," Jl. Tani II, Kel. Pasiran  No. 58B, RT 40",Parisan,0.90615,108.96966944444445,West,,209, N 
WP28, BU MIAN CIONG KIUN ," Jl. Tani, Kel. Pasiran  No. 97, RT 40",Parisan,0.9034111111111112,108.97150833333333,West,,207, N 
WP29, CHAU KONG NYIAN SAI ," Jl. Tani, Kel. Pasiran  No. 36, RT 40",Parisan,0.9044916666666667,108.97230555555555,West,,295, N 
WP30, LO SHI KUNG ," Jl. Tani Gg. Cisadane, Kel. Pasiran  No. 46, RT 39",Parisan,0.9003361111111111,108.96709722222222,West,,199, N 
WP31, CUNG NYI THONG ," Jl. Tani Gg. Cisadane, Kel. Pasiran  No. 46, RT 39",Parisan,0.9004472222222223,108.96718055555556,West,,200, N 
WP32, DATUK BUYUR ," Jl. Tani, Kel. Pasiran  No. 99, RT 34",Parisan,0.8953138888888889,108.96577777777777,West,,198, N 
WP33, NG BONG THAI KIUN ," Jl. Alianyang Gg. Seksama, Kel. Pasiran  No. 49A, RT 42",Parisan,0.9071250000000001,108.97675,West,,250, N 
WP34, BUN BU CIONG KIUN ," Jl. Alianyang Gg. Seksama, Kel. Pasiran , RT 42",Parisan,0.9065361111111111,108.97735833333334,West,,249, N 
WP35, CHIANG SAN CIONG KIUN ," Jl. Alianyang Gg. Seksama, Kel. Pasiran  No. 61, RT 42",Parisan,0.9073972222222222,108.97655555555556,West,,251, N 
WP36, CHIAU SAN PAK KUNG ," Jl. Alianyang Gg. Kencana, Kel. Pasiran  No. 3F, RT 42",Parisan,0.906038888888889,108.97614722222222,West,,248, N 
WP37, BU LUI CIONG KIUN ," Jl. Alianyang, Kel. Pasiran  No. 30, RT 41",Parisan,0.903525,108.97573888888888,West,,138, Y 
WP38, SAM CHIN KAU CU ," Jl. Alianyang, Kel. Pasiran  No. 17E, RT 41",Parisan,0.9012416666666667,108.97411111111111,West,,139, Y 
WP39, LO CU THIAN SHI ," Jl. Alianyang, Kel. Pasiran  No. 6, RT 41",Parisan,0.8990222222222222,108.97221388888889,West,,203, N 
WP40, SAM KON LIN CIONG ," Jl. Alianyang, Kel. Pasiran  No. 17, RT 40",Parisan,0.9026888888888889,108.97463333333333,West,,201, N 
WP41, PIT TET THAI CI ," Jl. Alianyang, Kel. Pasiran  No. 18, RT 39",Parisan,0.8992777777777777,108.972025,West,,202, N 
WP42, KON KUNG ," Jl. Alianyang, Kel. Pasiran  No. 34, RT 39",Parisan,0.9018666666666667,108.97117777777778,West,,204, N 
WP43, FU THAI NYIAN SAI ," Jl. Alianyang, Kel. Pasiran  No. 24, RT 1",Parisan,0.9096611111111111,108.97978611111111,West,,191, N 
WP44, LI SAN PAK KUNG ," Jl. Alianyang Gg. Tri Sakti, Kel. Pasiran  No. 61G, RT 40",Parisan,0.9020972222222222,108.97373333333333,West,,205, N 
WP45, SAM CHIN FAB THAN ," Jl. Alianyang Gg. Abadi, Kel. Pasiran  No. 8, RT 1",Parisan,0.908675,108.98003888888888,West,,190, N 
WP46, HIU PIT TET ," Jl. Alianyang Gg. Reformasi, Kel. Pasiran  No. 311, RT 1",Parisan,0.9069333333333334,108.97931944444444,West,,197, N 
WP47, NG THO LIN BONG ," Jl. Alianyang Gg. Suka Damai, Kel. Pasiran  No. 4i, RT 1",Parisan,0.9081166666666667,108.97981111111112,West,,189, N 
WP48, PHAK LIAN SHI KUNG ," Jl. Alianyang Gg. Nagasari, Kel. Pasiran  No. 33D, RT 59",Parisan,0.9088583333333333,108.97858055555555,West,,259, N 
WP49, CHAI PAK KUNG ," Jl. Swadaya, Kel. Pasiran  No. 43, RT 43",Parisan,0.908925,108.98032500000001,West,,183, N 
WP50, DATUK BUJANG BERANI ," Jl. Swadaya, Kel. Pasiran  No. 43, RT 43",Parisan,0.9064722222222222,108.98032777777777,West,,184, N 
WP51, SAM BONG CIONG KIUN ," Jl. Swadaya, Kel. Pasiran  No. 43, RT 43",Parisan,0.9063027777777778,108.98017222222222,West,,185, N 
WP52, CONG SAN PAK KUNG ," Jl. Swadaya, Kel. Pasiran  No. 38I, RT 1",Parisan,0.9062194444444445,108.979975,West,,186, N 
WP53, KIM SAN PAK KUNG ," Jl. Swadaya, Kel. Pasiran  No. 41, RT 1",Parisan,0.9072527777777778,108.98101111111112,West,,188, N 
WP54, DATUK ULAR PUTIH ," Jl. Swadaya, Kel. Pasiran  No. 36A, RT 1",Parisan,0.9074722222222222,108.98081388888889,West,,187, N 
WP55, PHAK LIUNG THAI CI ," Jl. SM. Tsjafioeddin, Kel. Pasiran  No. 44, RT 2",Parisan,0.90745,108.98594444444444,West,,147, Y 
WP56, NG MU NYIONG NYIONG ," Jl. SM. Tsjafioeddin, Kel. Pasiran  No. 44, RT 2",Parisan,0.7241194444444444,108.986,West,,148, N 
WP57, DATUK TASILI ," Jl. SM. Tsjafioeddin, Kel. Pasiran  No. 54, RT 1",Parisan,0.9082833333333333,108.982575,West,,195, N 
WP58, LI PU NYIAN SAI ," Jl. SM. Tsjafioeddin Gg. Permata Hijau  No. 511, RT 1",Parisan,0.9074777777777778,108.9824,West,,196, N 
WP59, DATUK BANGAU PUTIH ," Jl. P. Diponegoro Gg. Wisata, Kel. Pasiran  No. 104, RT 50",Parisan,0.9013,108.98094444444445,West,,286, N 
WP60, LIM SAN PAK KUNG ," Jl. Cimandiri, Kel. Pasiran  No. 40, RT 40",Parisan,0.9041944444444444,108.97391944444445,West,,206, N 
WP61, NYUK FUNG SHI THIAN ," Jl. A. Yani, Kel. Pasiran  No. 22, RT 33",Parisan,0.8912444444444444,108.96576666666667,West,,111, N 
WP62, BU MIAN CIONG KIUN ," Jl. A. Yani Gg. Batu Mas, Kel. Pasiran  No. 47A, RT 32",Parisan,0.8919416666666666,108.97181111111111,West,,109, N 
WP63, KIU CHIAN NYIAN SAI ," Jl. A. Yani Gg. Batu Mas, Kel. Pasiran  No. 48, RT 32",Parisan,0.8918166666666666,108.97156666666667,West,,108, N 
WP64, NYIAN SIAN PAK KUNG ," Jl. A. Yani Gg. Wenang, Kel. Pasiran  No. 09A, RT 33",Parisan,0.8903249999999999,108.96857222222222,West,,110, N 
WP65, LUI HIE BONG JA ," Jl. Gunung Sari Gg. Indah Sari I, Pasiran  No. 50, RT 54",Parisan,0.8924,108.97448055555556,West,,107, Y 
WP66, SAK MA CIONG KIUN ," Jl. Gunung Sari Gg. Indah Sari I, Pasiran  No. 51, RT 54",Parisan,0.8920111111111111,108.97499444444445,West,,106, N 
WP67, JONG KONG SHI KUNG ," Jl. Gunung Sari Gg. Indah Sari I, Pasiran  No. 53, RT 54",Parisan,0.8920611111111111,108.975075,West,,105, N 
WP68, KIM BONG THAI CI ," Jl. Gunung Sari Gg. Puncak Sari, Pasiran  No. 81, RT 30",Parisan,0.8891333333333333,108.9769,West,,104, N 
WP69, LIONG SAN JIN ," Jl. Gunung Merapi Gg. Rukun, Kel. Pasiran  No. 15A, RT 30",Parisan,0.8925805555555555,108.98144166666667,West,,296, N 
WP70, FAB LIN CIONG KIUN ," Jl. Gunung Merapi Gg. Rukun, Kel. Pasiran  No. 15D, RT 30",Parisan,0.893,108.98135,West,,98, Y 
WP71, LIN FAB SHI KUNG ," Jl. Gunung Merapi Gg. Rukun, Kel. Pasiran  No. 14H, RT 30",Parisan,0.8920833333333333,108.98206388888889,West,,99, N 
WP72, NYI LONG SHIN ," Jl. Gunung Merapi Gg. Rukun, Kel. Pasiran  No. 14B, RT 30",Parisan,0.893,108.98209166666666,West,,100, N 
WP73, CUNG NYI MIAU ," Jl. Yohana Godang, Kel. Pasiran  No. 50, RT 29",Parisan,0.8965916666666667,108.98291666666667,West,,113, N 
WP74, KON CHIN TI KIUN ," Jl. Gunung Bawang, Kel. Pasiran  No. 45, RT 31",Parisan,0.8936388888888889,108.97761944444444,West,,101, N 
WP75, FUNG MIAN CIONG KIUN ," Jl. Gunung Bawang, Kel. Pasiran  No. 58, RT 31",Parisan,0.8943305555555555,108.97755555555555,West,,102, N 
WP76, SAM SAN KET BONG ," Jl. Gunung Bawang, Kel. Pasiran  No. 52, RT 31",Parisan,0.8940722222222222,108.97726111111112,West,,103, N 
WP77, SAK BONG JA ," Jl. Kridasana ( Lantai bawah ), Pasiran  No. 34, RT 53",Parisan,0.8990388888888888,108.98572222222222,West,,92, N 
WP78, FUNG MIAN CIONG KIUN ," Jl. Kridasana ( Lantai atas ), Pasiran  No. 34, RT 53",Parisan,0.8990388888888888,108.98572222222222,West,,93, N 
WP79, THAI SONG LO KIUN ," Jl. Kridasana Gg. Karya I, Kel. Pasiran , RT 52",Parisan,0.8920055555555555,109.00963055555556,West,,87, N 
WP80, FA SAN NYIAN SAI ," Jl. Kridasana Gg. Karya I, Kel. Pasiran  No. 45, RT 52",Parisan,0.8933027777777778,108.98636111111111,West,,88, N 
WP81, FA SAN LIUK CIONG ," Jl. Kridasana Gg. Karya I, Kel. Pasiran  No. 32A, RT 52",Parisan,0.8933055555555556,108.98619722222222,West,,89, N 
WP82, CUNG SAN NG BONG ," Jl. Kridasana Gg. Karya I, Kel. Pasiran  No. 28E, RT 52",Parisan,0.8937472222222222,108.985375,West,,90, N 
WP83, LIONG SAN FAB THAN ," Jl. Kridasana Gg. Karya I, Kel. Pasiran  No. 27M, RT 52",Parisan,0.8940555555555555,108.98539722222222,West,,91, N 
WP84, CIN LIUNG PAK KUNG ," Jl. Kridasana Gg. Karya II, Kel. Pasiran  No. 82, RT 28",Parisan,0.8882416666666666,108.98425277777778,West,,86, N 
WP85, SAK BONG CHIAN SOI ," Jl. Kridasana Gg. Karya II, Kel. Pasiran  No. 72, RT 28",Parisan,0.8873333333333333,108.99894444444445,West,,84, N 
WP86, NG FONG PAK KUNG ," Jl. Kridasana Gg. Karya II, Kel. Pasiran  No. 70A, RT 28",Parisan,0.8872055555555556,108.98189166666667,West,,85, N 
WP87, KELENTENG HARIMAU PUTIH ," Jl. Kridasana Gg. Tujuh Puluh, Kel. Pasiran  No. 31, RT 26",Parisan,0.89005,108.98836666666666,West,,83, N 
WP88, CONG PAK KUNG KUNG ," Jl. Kridasana Gg. Tujuh Puluh, Kel. Pasiran  No. 83, RT 26",Parisan,0.8897138888888888,108.98865277777777,West,,79, N 
WP89, KON JIM FUT MU ," Jl. Kridasana Gg. Tujuh Puluh, Kel. Pasiran  No. 45, RT 26",Parisan,0.8907638888888889,108.98913055555556,West,,78, N 
WP90, SAK THO CIONG KIUN ," Jl. Kridasana Gg. Tujuh Puluh, Kel. Pasiran  No. 82B, RT 26",Parisan,0.8892611111111111,109.00591944444444,West,,80, N 
WP91, PIT TET SEN KIUN ," Jl. Kridasana Gg. Setuju, Kel. Pasiran  No. 12B, RT 22",Parisan,0.89725,108.98787777777778,West,,13, N 
WP92, THO FAB SIAN SHI ," Jl. Kridasana Gg. Setuju, Kel. Pasiran  No. 41, RT 22",Parisan,0.8967027777777777,108.98783055555556,West,,15, N 
WP93, LIE TET SIAN ," Jl. Kridasana Gg. Setuju, Kel. Pasiran  No. 35, RT 22",Parisan,0.8967277777777778,108.98784444444445,West,,14, N 
WP94, THIAN SHI FAB THAN ," Jl. Kridasana Gg. Setuju, Kel. Pasiran  No. 42, RT 22",Parisan,0.8966361111111111,108.98773055555556,West,,16, N 
WP95, SAK BONG THAN ," Jl. Kridasana Gg. Setuju, Kel. Pasiran  No. 155, RT 23",Parisan,0.896825,108.9885388888889,West,,112, N 
WP96, SHI THIAN FUT CU ," Jl. Kridasana Gg. Makasar, Kel. Pasiran  No. 81H, RT 20",Parisan,0.8970277777777778,108.98725,West,,17, Y 
WP97, KIM SAN PAK KUNG ," Jl. Kridasana Gg. Makasar, Kel. Pasiran  No. 92, RT 20",Parisan,0.8982749999999999,108.98753333333333,West,,19, N 
WP98, KIU THIAN HIAN NG ," Jl. Kridasana Gg. Makasar, Kel. Pasiran  No. 81M, RT 20",Parisan,0.8970305555555556,108.98743333333333,West,,18, N 
WP99, CHE THIAN THAI SHIN ," Jl. Kridasana Gg. Tondano, Kel. Pasiran  No. 60, RT 20",Parisan,0.89815,108.98658611111111,West,,21, N 
WP100, THAI SONG LO KIUN ," Jl. Kridasana Gg. Tondano, Kel. Pasiran  No. 36, RT 20",Parisan,0.8982249999999999,108.98676944444445,West,,20, N 
WP101, FAB TJHU KUNG ," Jl. GM. Situt Gg. Bakti, Kel. Pasiran  No. 56, RT 55",Parisan,0.9006388888888889,108.98963888888889,West,,33, N 
WP102, DATUK KEMUNING ," Jl. GM. Situt Gg. Bakti, Kel. Pasiran  No. 1, RT 55",Parisan,0.9018,108.98823055555556,West,,31, N 
WP103, FUNG MIAN CIONG KIUN ," Jl. GM. Situt Gg. Bakti, Kel. Pasiran  No. 17, RT 21",Parisan,0.9008611111111111,108.98947222222222,West,,32, N 
WP104, CHIANG SAN CIONG KIUN ," Jl. GM. Situt Gg. Arjuna, Kel. Pasiran  No. 52, RT 60",Parisan,0.9021555555555556,108.9858611111111,West,,160, Y 
WP105, NG BU THIAN SHI ," Jl. Pelita Gg. Lembah I, Kel. Pasiran  No. 53, RT 27",Parisan,0.8945583333333333,108.984425,West,,97, N 
WP106, LIN SAN PAK KUNG ," Jl. GM. Situt, Kel. Pasiran  No. 11, RT 14",Parisan,0.9034583333333334,108.98878888888889,West,,132, N 
WP107, LIN SAN CU SHI ," Jl. Saman Bujang, Kel. Pasiran  No. 40, RT 58",Parisan,0.90685,108.98873611111111,West,,152, N 
WP108, NG FU THAI CIONG ," Jl. Saman Bujang Gg. Harapan, Pasiran  No. 16, RT 58",Parisan,0.9064444444444445,108.98941388888889,West,,154, N 
WP109, PHAK SI KUNG KUNG ," Jl. Saman Bujang Gg. Senang, Pasiran  No. 39, RT 5",Parisan,0.9051416666666667,108.98892777777777,West,,155, N 
WP110, SAM BONG LIN THAN ," Jl. Saman Bujang Gg. Senang, Pasiran  No. 40, RT 5",Parisan,0.9051333333333333,108.98897222222222,West,,156, N 
WP111, KONG CI CUN BONG ," Jl. Saman Bujang Gg. Senang (Lantai 1) , RT 5",Parisan,0.9045861111111111,108.98903055555556,West,,157, N 
WP112, NAM HOI KON JIM ," Jl. Saman Bujang Gg. Senang (Lantai 2) , RT 5",Parisan,0.9045861111111111,108.98903055555556,West,,158, N 
WP113, FUNG MIAN CIONG KIUN ," Jl. P. Natuna Kampung Manggis, Pasiran , RT 24",Parisan,0.8951944444444444,108.99615833333334,West,,64, N 
WP114, SAU LIM CIONG KIUN ," Jl. P. Natuna Kampung Manggis, Pasiran , RT 24",Parisan,0.894975,108.99651388888888,West,,65, N 
WP115, PHAK MA CIONG KIUN ," Jl. P. Natuna Kampung Manggis, Pasiran , RT 24",Parisan,0.8955833333333333,108.99586944444445,West,,66, N 
WP116, NG FU CIONG KIUN ," Jl. P. Natuna Kampung Manggis, Pasiran , RT 24",Parisan,0.8955333333333333,108.99592777777778,West,,67, N 
WP117, PHAK JIE KUNG KUNG ," Jl. P. Natuna Kampung Manggis, Pasiran  No. 92, RT 24",Parisan,0.8952027777777778,108.99591944444444,West,,68, N 
WP118, SONG THAI THAI KUNG ," Jl. P. Natuna Kampung Manggis, Pasiran  No. 93, RT 24",Parisan,0.8953055555555556,108.99574166666667,West,,69, N 
WP119, LO CU THIAN SHI ," Jl. P. Natuna Kampung Manggis, Pasiran  No. 91, RT 24",Parisan,0.894836111111111,108.99521111111112,West,,70, N 
WP120, PHAK JIE NYIONG NYIONG ," Jl. P. Natuna Kampung Manggis, Pasiran  No. 77, RT 24",Parisan,0.8945194444444444,108.99523055555555,West,,71, N 
WP121, FUNG MIAN CIONG KIUN ," Jl. P. Natuna Kampung Manggis, Pasiran  No. 72, RT 24",Parisan,0.8945555555555555,108.995275,West,,72, N 
WP122, PHAK HOK THUNG CI ," Jl. P. Natuna Kampung Manggis, Pasiran  No. 65, RT 24",Parisan,0.8943305555555555,108.99539444444444,West,,73, N 
WP123, LIUNG SAN PAK KUNG ," Jl. Burhani, Kel. Pasiran  No. 45, RT 25",Parisan,0.8914638888888888,108.98990277777777,West,,76, N 
WP124, NYUK FUNG THAI SHI ," Jl. Burhani, Kel. Pasiran  No. 18, RT 25",Parisan,0.8933027777777778,108.99020555555556,West,,75, N 
WP125, TUNG SAN CIONG KIUN ," Jl. Burhani, Kel. Pasiran , RT 24",Parisan,0.8918111111111111,108.99425,West,,74, Y 
WP126, KIM BUI PAK KUNG ," Jl. Burhani, Kel. Pasiran  No. 19, RT 24",Parisan,0.8905055555555556,108.98968055555555,West,,77, Y 
WP127, CEU MA CIONG KIUN ," Jl. Burhani, Kel. Pasiran  No. 31, RT 24",Parisan,0.8911527777777778,108.99022222222223,West,,81, N 
WP128, NG FAB THUNG CI ," Jl. Burhani, Kel. Pasiran  No. 41, RT 24",Parisan,0.8913333333333333,108.99033055555556,West,,82, N 
WP129, PAT BONG CIONG KIUN ," Jl. P. Natuna, Kel. Pasiran  No. 38, RT 21",Parisan,0.9014722222222222,108.98951111111111,West,,34, Y 
WP130, THAI SONG LO KIUN ," Jl. P. Natuna, Kel. Pasiran  No. 9, RT 21",Parisan,0.9008083333333333,108.98987777777778,West,,135, N 
WP131, BONG LO SIAN SHI ," Jl. P. Natuna, Kel. Pasiran  No. 132, RT 15",Parisan,0.9025611111111111,108.98939722222222,West,,38, N 
WP132, KIM SAN PAK KUNG ," Jl. P. Natuna, Kel. Pasiran , RT 15",Parisan,0.902875,108.98904166666667,West,,133, N 
WP133, THAI CU SHIN TI ," Jl. P. Natuna, Kel. Pasiran  No. 51, RT 19",Parisan,0.8970638888888889,108.98952777777778,West,,5, N 
WP134, FUT FAB BONG MU MU NYIONG NYIONG ," Jl. P. Natuna, Kel. Pasiran  No. 49, RT 19",Parisan,0.8971305555555555,108.98955,West,,6, N 
WP135, JONG PAK KUNG ," Jl. P. Natuna, Kel. Pasiran  No. 61, RT 19",Parisan,0.8968305555555556,108.98966944444444,West,,7, N 
WP136, THAI SHI KUNG ," Jl. P. Natuna, Kel. Pasiran  No. 59, RT 19",Parisan,0.8960583333333333,108.99009166666667,West,,8, N 
WP137, SAM CHIN KAU CU ," Jl. P. Natuna, Kel. Pasiran  No. 57, RT 19",Parisan,0.8961749999999999,108.9892888888889,West,,9, N 
WP138, LI FAB NYIAN SAI ," Jl. P. Natuna, Kel. Pasiran  No. 64, RT 19",Parisan,0.8960194444444444,108.9893888888889,West,,10, N 
WP139, CETIA MANJUSHRI BODHISATTVVA ," Jl. P. Natuna, Kel. Pasiran  No. 88, RT 21",Parisan,0.8984916666666667,108.98963611111111,West,,12, N 
WP140, THAI SONG LO KIUN ," Jl. P. Natuna, Kel. Pasiran  No. 27, RT 19",Parisan,0.8984444444444444,108.98967777777779,West,,27, N 
WP141, LI SAN PAK KUNG ," Jl. P. Natuna, Kel. Pasiran  No. 39A, RT 19",Parisan,0.8971861111111111,108.98919722222222,West,,28, Y 
WP142, THAI SONG LO KIUN ," Jl. P. Natuna, Kel. Pasiran  No. 44C, RT 19",Parisan,0.8972027777777778,108.98913888888889,West,,29, N 
WP143, SAM SAN KET BONG ," Jl. P. Natuna, Kel. Pasiran  No. 44C, RT 19",Parisan,0.8969166666666666,108.98893611111112,West,,30, N 
WP144, BUN BU FAB SHI ," Jl. P. Natuna, Kel. Pasiran  No. 26, RT 19",Parisan,0.8982249999999999,108.99006388888888,West,,11, N 
WP145, SAM SAN CIONG KIUN ," Jl. P. Natuna, Kel. Pasiran  No. 67, RT 19",Parisan,0.8971416666666666,108.98997222222222,West,,1, Y 
WP146, HIAT MIAN CIONG KIUN ," Jl. P. Natuna, Kel. Pasiran  No. 74, RT 19",Parisan,0.8975861111111111,108.98965277777778,West,,3, N 
WP147, LU SAN LIUK CIONG ," Jl. P. Natuna, Kel. Pasiran  No.  74A , RT 19",Parisan,0.8976694444444444,108.98957777777778,West,,2, N 
WP148, JUNG LO PAK KUNG ," Jl. P. Natuna, Kel. Pasiran  No. 47, RT 19",Parisan,0.8970638888888889,108.98936388888889,West,,4, N 
WP149, TUNG SHIN MIAU ," Jl. P. Natuna Gg. Samudera, Kel. Pasiran  No. 34, RT 19",Parisan,0.9008638888888889,108.99210833333333,West,,52, N 
WP150, CONG THIAN SHI ," Jl. P. Natuna Gg. Sinar Abadi, Kel. Pasiran  No. 16A, RT 19",Parisan,0.8994249999999999,108.990975,West,,23, N 
WP151, SAK BONG JA KUNG ," Jl. P. Natuna Gg. Sinar Abadi, Kel. Pasiran  No. 12A, RT 19",Parisan,0.8993805555555555,108.99064722222222,West,,22, N 
WP152, FUNG JIE PIT TET ," Jl. P. Natuna Gg. Sinar Abadi, Kel. Pasiran  No. 10, RT 19",Parisan,0.8991277777777777,109.00069722222223,West,,24, N 
WP153, CHE THIAN THAI SHIN ," Jl. P. Natuna Gg. Sinar Abadi, Kel. Pasiran  No. 22, RT 18",Parisan,0.8997944444444445,108.99032777777778,West,,26, N 
WP154, THASI SONG LO KIUN ," Jl. P. Natuna Gg. Sinar Abadi, Kel. Pasiran  No. 18, RT 18",Parisan,0.899986111111111,108.99072222222222,West,,25, N 
WP155, FUNG MIAN PAK KUNG ," Jl. P. Natuna Gg. Dua Belas, Kel. Pasiran  No. 56, RT 18",Parisan,0.9056111111111111,108.99024722222222,West,,35, N 
WP156, KELENTENG TANDUK ," Jl. P. Natuna Gg. Terang, Kel. Pasiran  No. 65, RT 18",Parisan,0.9008694444444445,108.99048333333333,West,,36, N 
WP157, BUN BU CIONG KIUN ," Jl. P. Natuna, Kel. Pasiran  No. 38, RT 18",Parisan,0.9007722222222222,108.98991944444444,West,,285, N 
WP158, KIM SI PAK KUNG ," Jl. P. Natuna, Kel. Pasiran  No. 65, RT 18",Parisan,0.9007583333333333,108.99061388888889,West,,37, N 
WP159, LIN SAN PAK KUNG ," Jl. P. Natuna, Kel. Pasiran  No. 48, RT 17",Parisan,0.8998166666666666,108.99411111111111,West,,61, N 
WP160, PANGLIMA BURUNG KUNING ," Jl. P. Natuna, Kel. Pasiran  No. 65, RT 17",Parisan,0.8993055555555556,108.9940111111111,West,,62, N 
WP161, LIN NGOK THUNG CI ," Jl. P. Natuna, Kel. Pasiran  No. 43, RT 17",Parisan,0.9010083333333334,108.99299722222223,West,,63, N 
WP162, LIN PAK KUNG ," Jl. P. Natuna, Kel. Pasiran  No. 41, RT 17",Parisan,0.9011027777777778,108.99280555555556,West,,134, N 
WP163, PHAK LA TOK ," Jl. P. Natuna Gg. Bambu, Kel. Pasiran  No. 53A, RT 17",Parisan,0.8993444444444444,108.99300277777778,West,,56, N 
WP164, LA TOK SHI KUNG ," Jl. P. Natuna Gg. Bambu, Kel. Pasiran , RT 17",Parisan,0.8994916666666667,108.99321388888889,West,,57, N 
WP165, SAN THAI CI ," Jl. P. Natuna Gg. Bambu, Kel. Pasiran  No. 52, RT 17",Parisan,0.8999944444444444,108.99339722222223,West,,58, N 
WP166, SAM CHIN KAU CU ," Jl. P. Natuna Gg. Samudera, Kel. Pasiran  No. 34P, RT 17",Parisan,0.9004444444444445,108.992325,West,,54, N 
WP167, LIM SAN PAK KUNG ," Jl. P. Natuna Gg. Samudera, Kel. Pasiran  No. 34E, RT 17",Parisan,0.9003805555555556,108.99249722222223,West,,55, N 
WP168, NYI BONG ," Jl. P. Natuna, Kel. Pasiran  No. 42C, RT 37",Parisan,0.9020472222222222,108.99387222222222,West,,44, Y 
WP169, LI SAN LO MU ," Jl. P. Natuna Gg. Happy, Kel. Pasiran  No. 30, RT 37",Parisan,0.9017555555555555,108.99317777777777,West,,41, N 
WP170, BU LUN PAK KUNG ," Jl. P. Natuna Gg. Happy, Kel. Pasiran  No. 38A, RT 37",Parisan,0.9024472222222223,108.99325833333333,West,,42, N 
WP171, LU SAN THAI CIONG ," Jl. P. Natuna Gg. Happy, Kel. Pasiran  No. 38B, RT 37",Parisan,0.9024027777777778,108.99331944444445,West,,43, N 
WP172, LU PAN SIAN SHI ," Jl. P. Natuna Gg. Sinar, Kel. Pasiran  No. 89, RT 37",Parisan,0.9024222222222222,108.99175,West,,39, N 
WP173, PHAK HOK SIAN SHI ," Jl. P. Natuna Gg. Sinar, Kel. Pasiran  No. 8, RT 37",Parisan,0.9021722222222223,108.99203611111112,West,,40, N 
WP174, LA TOK KIUNG ," Jl. P. Natuna Gg. Sinar, Kel. Pasiran  No. 61, RT 16",Parisan,0.9019166666666667,108.99197222222222,West,,45, N 
WP175, BU KEU CIONG KIUN ," Jl. P. Natuna, Kel. Pasiran  No. 33, RT 16",Parisan,0.8998305555555556,108.99397222222223,West,,59, N 
WP176, PHAK LIAN SHI KUNG ," Jl. P. Natuna, Kel. Pasiran  No. 34, RT 16",Parisan,0.8998194444444444,108.99394166666667,West,,60, N 
WP177, NAM SAN CIONG KIUN ," Jl. P. Natuna, Kel. Pasiran  No. 17, RT 16",Parisan,0.9011972222222222,108.99280555555556,West,,297, N 
WP178, NG FONG PAK KUNG / ALTAR ," Jl. P. Natuna, Kel. Pasiran  No. 16A, RT 14",Parisan,0.9027138888888889,108.98939166666666,West,,294, N 
WP179, THIAN SHI CIN NYIN ," Jl. P. Natuna, Kel. Pasiran  No. 62, RT 14",Parisan,0.9013722222222222,108.99106944444445,West,,51, N 
WP180, SAM SIP LIUK THAI KAU ," Jl. P. Natuna Gg. Marga Pui, Pasiran  No. 58F, RT 16",Parisan,0.9009861111111112,108.99491388888889,West,,123, N 
WP181, CEU MA CIONG KIUN ," Jl. P. Natuna Gg. Samudera, Kel. Pasiran  No. 34B, RT 14",Parisan,0.90075,108.99235833333333,West,,53, N 
WP182, DATUK GUNUNG BESI ," Jl. P. Belitung, Kel. Pasiran  No. 11C, RT 14",Parisan,0.9024555555555556,108.99064166666666,West,,50, Y 
WP183, THO FAB SIAN SHI ," Jl. P. Belitung, Kel. Pasiran  No. 10, RT 10",Parisan,0.9047083333333333,108.99107777777778,West,,128, N 
WP184, LIN SAN FAB SHI ," Jl. P. Belitung Gg. Happy, Kel. Pasiran  No. 64, RT 37",Parisan,0.9030833333333333,108.99188055555555,West,,49, N 
WP185, DATUK TANJUNG PALO ," Jl. P. Belitung Gg. Gotong Royong, Pasiran  No. 42, RT 10",Parisan,0.9042277777777779,108.991225,West,,130, N 
WP186, THO FAB THAN ," Jl. P. Belitung Gg. Gotong Royong, Pasiran  No. 69, RT 10",Parisan,0.9034833333333333,108.99091944444444,West,,46, N 
WP187, CHIT THIAN MIAU ," Jl. P. Belitung Gg. Gotong Royong, Pasiran  No. 66, RT 10",Parisan,0.9037805555555556,108.99080000000001,West,,47, N 
WP188, SAM SAN KET BONG ," Jl. P. Belitung Gg. Gotong Royong, Pasiran  No. 67, RT 12",Parisan,0.9042222222222223,108.99151388888889,West,,129, N 
WP189, LO CU SHIAN SHI ," Jl. P. Belitung Gg. Happy, Kel. Pasiran  No. 63, RT 37",Parisan,0.9030833333333333,108.99184166666667,West,,48, N 
WP190, FUNG MIAN CIONG KIUN ," Jl. Pasar Turi, Kel. Pasiran  No. 79, RT 9",Parisan,0.9052222222222223,108.99198055555556,West,,116, N 
WP191, PHU AM CU SHI ," Jl. Pasar Turi, Kel. Pasiran  No. 73, RT 9",Parisan,0.9052694444444445,108.9917,West,,117, N 
WP192, BONG PAK KUNG KUNG ," Jl. Pasar Turi, Kel. Pasiran  No. 7, RT 12",Parisan,0.9037333333333334,108.99395,West,,126, N 
WP193, THAI SONG LO KIUN ," Jl. Pasar Turi, Kel. Pasiran  No. 15, RT 12",Parisan,0.905325,108.99270555555556,West,,119, N 
WP194, BONG PAK KUNG KUNG ," Jl. Pasar Turi, Kel. Pasiran  No. 68, RT 8",Parisan,0.9063027777777778,108.99238611111112,West,,115, N 
WP195, HIAN THIAN SONG TI ," Jl. Pasar Turi, Kel. Pasiran  No. 57, RT 8",Parisan,0.9060055555555556,108.99274722222222,West,,118, N 
WP196, CHIT BU CIONG KIUN ," Jl. Pasar Turi Gg. Happy, Kel. Pasiran  No. 25, RT 11",Parisan,0.9064472222222223,108.99364722222222,West,,120, N 
WP197, KIU LIAN PHU SAT ," Jl. Pasar Turi Gg. Happy, Kel. Pasiran  No. 29, RT 11",Parisan,0.9062250000000001,108.99373888888888,West,,121, N 
WP198, SAK SAN SHI KUNG ," Jl. Pasar Turi Gg. Happy, Kel. Pasiran  No. 2, RT 11",Parisan,0.9074166666666666,108.99308333333333,West,,122, N 
WP199, CHIANG MIN CIONG KIUN ," Jl. Pasar Turi Dalam / Blkg Sahabat Baru , RT 12",Parisan,0.9045833333333334,108.99563888888889,West,,127, N 
WP200, FA KONG THAI TI ," Jl. Pasar Baru , Kel. Pasiran  No. 17, RT 12",Parisan,0.9036388888888889,108.99371944444445,West,,125, N 
WP201, MAO SAN CU SHI ," Jl. Pasar Baru Kompleks Pasar Baru  No. 10A, RT 12",Parisan,0.9025861111111111,108.99434722222222,West,,124, N 
WP202, KON JIM NYIONG NYIONG ," Jl. Sama-sama, Kel. Pasiran  No. 18, RT 12",Parisan,0.9041361111111111,108.98986111111111,West,,131, N 
WM1, BUN BU CIONG KIUN ," Jl. Hermansyah, Kel. Melayu  No. 22, RT 25",Melayu,0.9102333333333333,108.98643055555556,West,,169, N 
WM2, LIE FAB NYIAN SAI ," Jl. Hermansyah Gg. Dwi Tunggal, Melayu  No. 43, RT 32",Melayu,0.9087027777777777,108.98451944444444,West,,161, N 
WM3, SUN FUK LUI THAN ," Jl. Hermansyah Gg. Dwi Tunggal Blok A  No. 29A, RT 35",Melayu,0.9096333333333334,108.98166666666667,West,,292, N 
WM4, NAM SAN LO MU ," Jl. Hermansyah Gg. Dwi Tunggal Blok A  No. 29.O, RT 35",Melayu,0.9096444444444445,108.9816111111111,West,,293, N 
WM5, THIET SAN SAM BONG ," Jl. Hermansyah Gg. Dwi Tunggal Blok A  No. 31B, RT 35",Melayu,0.9103916666666667,108.98089166666666,West,,179, N 
WM6, MUNG KU PAK KUNG ," Jl. Hermansyah Gg. Dwi Tunggal Blok A  No. 31C, RT 35",Melayu,0.9101333333333333,108.98081944444445,West,,178, N 
WM7, SAM CHIN KAU CU ," Jl. Hermansyah Gg. Dwi Tunggal Blok A  No. 30F, RT 35",Melayu,0.9099527777777778,108.98121944444445,West,,182, N 
WM8, CHE THIAN THAI SHIN ," Jl. Hermansyah Gg. Dwi Tunggal Blok A  No. 102, RT 33",Melayu,0.9100805555555556,108.98270277777777,West,,181, N 
WM9, SHI NGOK FAB THAN ," Jl. Hermansyah Gg. Dwi Tunggal Blok A  No. 30A, RT 33",Melayu,0.9101333333333333,108.98372777777777,West,,165, N 
WM10, NG HANG SEN KIUN ," Jl. Hermansyah Gg. Dwi Tunggal Blok A  No. 5, RT 33",Melayu,0.9107916666666667,108.98404444444445,West,,174, N 
WM11, DATUK BRAMA ," Jl. Hermansyah Gg. Dwi Tunggal Blok B  No. 57, RT 33",Melayu,0.9097722222222222,108.98330555555556,West,,162, N 
WM12, PHAK JIE NYIONG ," Jl. Hermansyah Gg. Dwi Tunggal Blok B  No. 76, RT 33",Melayu,0.9097611111111111,108.98339166666666,West,,163, N 
WM13, DATUK RAJIRO ," Jl. Hermansyah Gg. Dwi Tunggal Blok B  No. 53, RT 33",Melayu,0.9098416666666667,108.9833111111111,West,,164, N 
WM14, PHAK HOK SIAN SHI ," Jl. Hermansyah Gg. Dwi Tunggal Blok C  No. 158, RT 33",Melayu,0.910825,108.98190833333334,West,,177, N 
WM15, LU SAN PAK KUNG ," Jl. Hermansyah Gg. Dwi Tunggal Blok C  No. 128, RT 33",Melayu,0.9105416666666667,108.98254166666666,West,,175, N 
WM16, SAK BONG CHIAN SOI ," Jl. Hermansyah Gg. Dwi Tunggal Blok C  No. 132, RT 33",Melayu,0.9105833333333333,108.98245,West,,176, N 
WM17, PHAK HOK SIAN SHI ," Jl. Hermansyah Gg. Dwi Tunggal Blok C  No. 158, RT 33",Melayu,0.910825,108.98190833333334,West,,177, N 
WM18, CHIT SHI CU ," Jl. Hermansyah Gg. Dwi Tunggal Blok D  No. 258, RT 33",Melayu,0.9117000000000001,108.98348055555556,West,,167, N 
WM19, PHAK HOK SIAN SHI ," Jl. Hermansyah Gg. Dwi Tunggal Blok D  No. 25D, RT 33",Melayu,0.9115277777777778,108.98327222222223,West,,166, N 
WM20, PHU AM CU SHI ," Jl. Hermansyah Gg. Dwi Tunggal Blok D  No. 252, RT 33",Melayu,0.9114833333333333,108.98341388888889,West,,284, N 
WM21, BONG PAK KUNG ," Jl. Hermansyah Gg. Ampera, Kel. Melayu  No. 16, RT 30",Melayu,0.9099333333333334,108.98563888888889,West,,171, N 
WM22, CHIN PAK KUNG KUNG ," Jl. Hermansyah Gg. Ampera, Kel. Melayu  No. 8, RT 30",Melayu,0.9098361111111112,108.98565555555555,West,,170, N 
WM23, KIM PO THUNG CI ," Jl. Hermansyah Gg. Ampera, Kel. Melayu  No. 19, RT 30",Melayu,0.9096916666666667,108.98551944444445,West,,172, N 
WM24, NAM SAM MIAN ," Jl. Hermansyah Gg. Ampera, Kel. Melayu  No. 30, RT 30",Melayu,0.9093666666666667,108.98534166666667,West,,173, N 
WM25, LUNG SIAN KUNG CI ," Jl. Hermansyah Gg. Dwi Warna, Melayu  No. 135, RT 29",Melayu,0.9118972222222222,108.98371388888889,West,,168, N 
WM26, LO CU THIAN SHI ," Jl. Jalil Tata, Kel. Melayu  No. 23, RT 38",Melayu,0.9084694444444444,108.98607222222222,West,,149, N 
WM27, HET LUI CIONG KIUN ," Jl. Said Harun, Kel. Melayu  No. 35, RT 33",Melayu,0.9091222222222223,108.98629166666667,West,,150, N 
WM28, SAM SAN THAI CI / JELANGKUNG ," Jl. Sindansana, Kel. Melayu  No. 17, RT 44",Melayu,0.9097000000000001,108.98748333333333,West,,151, N 
WM29, LU SAN KIONG SIU CHOI ," Jl. Alianyang, Kel. Melayu  No. 27, RT 23",Melayu,0.9133777777777778,108.98178333333334,West,,192, N 
WM30, SHI PAK KUNG KUNG ," Jl. Alianyang, Kel. Melayu  No. 34, RT 23",Melayu,0.914138888888889,108.98193888888889,West,,193, N 
WM31, CHIT SIAN BONG CUN ," Jl. Alianyang, Kel. Melayu  No. 18, RT 23",Melayu,0.9129444444444444,108.98162777777777,West,,194, N 
WM32, PHAK SI KUNG KUNG ," Jl. Alianyang Gg. Tugino, Kel. Melayu  No. 34, RT 24",Melayu,0.9137305555555556,108.98049166666667,West,,245, N 
WM33, CIU SIAN KUNG KUNG ," Jl. Yos Sudarso, Kel. Melayu  No. 73, RT 20",Melayu,0.9121222222222223,108.98563333333334,West,,279, N 
WM34, BU MIAN CIONG KIUN ," Jl. Yos Sudarso Gg. Parit Ketapang, Melayu  No. 54A, RT 14",Melayu,0.9160277777777778,108.98574166666667,West,,266, N 
WM35, CHIANG SAN PAK KUNG ," Jl. Yos Sudarso Gg. Parit Ketapang, Melayu  No. 88, RT 15",Melayu,0.9171444444444444,108.985625,West,,267, N 
WM36, NA CA SAM THAI CI ," Jl. Yos Sudarso Gg. Parit Ketapang, Melayu  No. 57A, RT 14",Melayu,0.9163027777777778,108.98565277777777,West,,264, N 
WM37, LO FAB SHI KUNG ," Jl. Yos Sudarso Gg. Parit Ketapang, Melayu  No. 44, RT 14",Melayu,0.9156083333333334,108.98489166666667,West,,271, N 
WM38, THO FAB THAN ," Jl. Yos Sudarso Gg. Parit Ketapang, Melayu  No. 12A, RT 12",Melayu,0.9146444444444445,108.98427777777778,West,,272, N 
WM39, KIM SAN PAK KUNG ," Jl. Yos Sudarso Gg. Parit Ketapang, Melayu  No. 31A, RT 13",Melayu,0.9150527777777778,108.9846388888889,West,,273, N 
WM40, PHAK SI KUNG KUNG ," Jl. Yos Sudarso Gg. Parit Ketapang, Melayu  No. 100, RT 10",Melayu,0.9139222222222222,108.98482777777778,West,,274, N 
WM41, NYI HI THAN ," Jl. Yos Sudarso Gg. Parit Ketapang, Melayu  No. 29, RT 7",Melayu,0.9140583333333333,108.98483055555556,West,,275, N 
WM42, LIN SAN THAI CI ," Jl. Yos Sudarso Gg. Nelayan, Kel. Melayu  No. 77, RT 18",Melayu,0.9174972222222222,108.984125,West,,268, N 
WM43, CI KO THAI BONG ," Jl. Yos Sudarso Gg. Nelayan, Kel. Melayu  No. 61, RT 58",Melayu,0.9162777777777777,108.98382777777778,West,,269, N 
WM44, PAK KUNG ," Jl. Yos Sudarso Gg. Nelayan, Kel. Melayu  No. 43, RT 17",Melayu,0.9158833333333334,108.98385277777778,West,,270, N 
WM45, THAI SIAU SEN KIUN ," Jl. Yos Sudarso, Gg. Skw Muda, Melayu  No. 15, RT 20",Melayu,0.9120111111111111,108.98580555555556,West,,280, N 
WM46, THIAN HA THAI CIONG KIUN ," Jl. Yos Sudarso, Gg. Skw Muda, Melayu  No. 21, RT 20",Melayu,0.9116472222222223,108.98530833333334,West,,281, N 
WM47, BONG PAK KUNG KUNG ," Jl. Yos Sudarso, Gg. Skw Muda, Melayu  No. 19, RT 20",Melayu,0.9114416666666667,108.98518333333334,West,,282, N 
WM48, NA CA THAI CI ," Jl. Yos Sudarso Gg. Muksin, Kel. Melayu  No. 4A, RT 22",Melayu,0.9127222222222222,108.98347777777778,West,,180, N 
WM49, LIM PAK KUNG ," Jl. Pembangunan, Kel. Melayu  No. 17A, RT 7",Melayu,0.9137333333333334,108.98617777777778,West,,276, N 
WM50, NG BONG SE SAK ," Jl. Merpati, Kel. Melayu  No. 39, RT 6",Melayu,0.9121583333333334,108.98823888888889,West,,277, N 
WM51, PHAK JIE NYIONG NYIONG ," Jl. Merpati, Kel. Melayu  No. 4, RT 6",Melayu,0.9126666666666667,108.98794166666667,West,,278, N 
WM52, KON SE JIM PHU SAT ," Jl. Merpati, Kel. Melayu  No. 5, RT 6",Melayu,0.9126666666666667,108.98788055555556,West,,283, N 
WM53, SAM CHIN KAU CU ," Jl. Nyiur Gg. Nyiur 1, Kel. Melayu  No. 87, RT 59",Melayu,0.9107055555555555,108.97935,West,,291, N 
WM54, CI KO THAI BONG ," Jl. Niaga (Lantai 2), Kel. Melayu  No. 169, RT 57",Melayu,0.9067722222222222,108.98810277777778,West,,153, N 
WT1, CHAI SEN PAK KUNG ," Jl. Pembangunan Gg. H. Achmal  No. 62, RT 5",Tengah,0.9168555555555555,108.9876388888889,West,,261, N 
WT2, DATUK TANJUNG KEMUNING 369 ," Jl. Yos Sudarso Gg. Parit Ketapang  No. 28, RT 7",Tengah,0.9158972222222223,108.9858888888889,West,,265, N 
WT3, BONG PAK KUNG MIAU ," Jl. Yos Sudarso Gg. Parit Ketapang , RT 5",Tengah,0.9176083333333332,108.98642777777778,West,,262, N 
WT4, FUT FAB SHI KIUN ," Jl. Yos Sudarso Gg. Parit Ketapang , RT 7",Tengah,0.9163444444444445,108.986025,West,,263, N 
WK1, NAM SAK SAK BONG ," Jl. Tani Gg. Bersama, Kel. Kuala  No. 105, RT 3",Kuala,0.91385,108.97784444444444,West,,231, N 
WK2, BUN BU CIONG KIUN ," Jl. Tani Gg. Bersama, Kel. Kuala  No. 66, RT 3",Kuala,0.9145027777777778,108.977575,West,,232, N 
WK3, CHIT SEN SIN NYIONG ," Jl. Tani Gg. Bersama, Kel. Kuala  No. 65, RT 3",Kuala,0.9142833333333333,108.97756111111111,West,,233, N 
WK4, LIM PAK KUNG KUNG ," Jl. Tani Gg. Bersama, Kel. Kuala , RT 3",Kuala,0.9145166666666666,108.97770277777778,West,,234, N 
WK5, FAB CHIN THAN ," Jl. Tani Gg. Bersama, Kel. Kuala  No. 164, RT 6",Kuala,0.9147888888888889,108.97588333333333,West,,235, N 
WK6, BONG LO SIAN SHI ," Jl. Tani Gg. Bersama, Kel. Kuala  No. 157, RT 6",Kuala,0.9151305555555556,108.97511944444445,West,,236, N 
WK7, NA CA SAM THAI CI ," Jl. Tani Gg. Bersama, Kel. Kuala  No. 89, RT 6",Kuala,0.9159416666666667,108.97511666666666,West,,237, N 
WK8, SI THAI KUNG KUNG ," Jl. Tani Gg. Bersama, Kel. Kuala  No. 45, RT 6",Kuala,0.9158833333333334,108.97545833333334,West,,238, N 
WK9, PHAK JIE NYIONG NYIONG ," Jl. Tani Gg. Bersama, Kel. Kuala  No. 159, RT 6",Kuala,0.9149222222222222,108.97536666666667,West,,239, N 
WK10, FA KONG THAI TI ," Jl. Tani Gg. Bersama, Kel. Kuala , RT 6",Kuala,0.9142166666666667,108.97513888888889,West,,240, N 
WK11, NO NAME ," Jl. Tani Gg. Bersama, Kel. Kuala , RT 6",Kuala,0.9142333333333333,108.97509722222222,West,,241, N 
WK12, DATUK IBAN ," Jl. Tani Gg. Seksama 1, Kel. Kuala  No. 137, RT 4",Kuala,0.9080166666666667,108.97551944444444,West,,252, N 
WK13, FUT MU NYIONG NYIONG ," Jl. Tani Gg. Seksama 1, Kel. Kuala  No. 136, RT 4",Kuala,0.9082638888888889,108.97539722222223,West,,253, N 
WK14, BU SAN PAK KUNG ," Jl. Tani Gg. Seksama 2, Kel. Kuala  No. 184, RT 4",Kuala,0.9094083333333334,108.97366111111111,West,,213, N 
WK15, FA SAN LO FU ," Jl. Tani Gg. Seksama 2, Kel. Kuala  No. 14, RT 13",Kuala,0.9104444444444445,108.97184722222222,West,,220, N 
WK16, LU SAN THAI CI ," Jl. Tani Gg. Seksama 2, Kel. Kuala  No. 235, RT 4",Kuala,0.9104027777777778,108.97372222222222,West,,221, N 
WK17, FAB SHI MIAU ," Jl. Tani Gg. Cimahi, Kel. Kuala  No. 21, RT 13",Kuala,0.9114694444444444,108.97324722222223,West,,222, N 
WK18, THIAN SAN KUNG KUNG ," Jl. Tani Gg. Cimahi, Kel. Kuala  No. 232, RT 4",Kuala,0.9113138888888889,108.97413888888889,West,,223, N 
WK19, LI FAB SIAN SHI ," Jl. Tani Gg. Cimahi, Kel. Kuala  No. 233, RT 4",Kuala,0.9111722222222223,108.9737638888889,West,,224, N 
WK20, CIONG KIUN MIAU ," Jl. Kelapa Dua, Kel. Kuala  No. 284H, RT 4",Kuala,0.9119166666666667,108.97452777777778,West,,225, N 
WK21, SAM THIAN THAI BONG ," Jl. Kelapa Dua, Kel. Kuala  No. 1, RT 13",Kuala,0.9168333333333333,108.9670388888889,West,,226, N 
WK22, CI KO THAI BONG ," Jl. Nagasari Gg. Panca Bakti Dalam, Kuala  No. 60, RT 4",Kuala,0.9091138888888889,108.97730277777778,West,,256, N 
WK23, THIAN FAB MIAU THONG ," Jl. Nagasari Gg. Panca Bakti Dalam, Kuala  No. 166, RT 4",Kuala,0.9084083333333334,108.97708888888889,West,,257, N 
WK24, THAI SONG LO KIUN ," Jl. Nagasari Gg. Panca Bakti Dalam, Kuala  No. 149, RT 4",Kuala,0.9083833333333333,108.97691944444445,West,,258, N 
WK25, CHAU KONG NYIAN SAI ," Jl. Nyiur Gg. Nyiur 3, Kel. Kuala  No. 135, RT 2",Kuala,0.9112361111111111,108.9786388888889,West,,287, N 
WK26, KONG FUK THAN ," Jl. Nyiur Gg. Nyiur 3, Kel. Kuala  No. D9, RT 2",Kuala,0.9119166666666667,108.97773333333333,West,,288, N 
WK27, LU SAN PAK KUNG ," Jl. Nyiur Gg. Nyiur 3, Kel. Kuala  No. D4, RT 2",Kuala,0.9116666666666667,108.97771666666667,West,,289, N 
WK28, SHI THO THAN ," Jl. Nyiur Gg. Nyiur 4, Kel. Kuala , RT 2",Kuala,0.9111694444444445,108.97795555555555,West,,290, N 
WK29, LIM SAN PAK KUNG ," Jl. Alianyang Gg. Duta Mas, Kel. Kuala  No. 392, RT 2",Kuala,0.9131555555555556,108.97891944444444,West,,246, N 
WK30, PHAK JIE CIONG KIUN ," Jl. Alianyang Gg. Duta Mas, Kel. Kuala  No. 390, RT 2",Kuala,0.9131111111111111,108.97895555555556,West,,247, N 
WK31, SHI THIAN FUT FAB ," Jl. Tani Gg. Famili, Kel. Kuala  No. 106, RT 4",Kuala,0.9092083333333334,108.97628611111111,West,,254, Y 
WK32, PHAK LIAN SHI KUNG ," Jl. Tani Gg. Famili, Kel. Kuala  No. 107, RT 4",Kuala,0.9094805555555556,108.97637777777778,West,,255, N 
WK33, NAM SAN LIUK CIONG ," Jl. Tani, Kel. Kuala  No. 47, RT 3",Kuala,0.9144416666666667,108.9783861111111,West,,230, N 
WK34, PHAK LIAN SHI KUNG ," Jl. Tani, Kel. Kuala  No. 116, RT 3",Kuala,0.9128861111111112,108.97748611111112,West,,242, N 
WK35, LI SAN BU CIONG ," Jl. Tani, Kel. Kuala  No. 60, RT 2",Kuala,0.9136111111111112,108.97815,West,,243, N 
WK36, LIM SAN PAK KUNG ," Jl. Tani, Kel. Kuala  No. 83, RT 2",Kuala,0.9118722222222222,108.97705555555555,West,,260, N 
WK37, LO FAB SHI KUNG ," Jl. Yos Sudarso, Kel. Kuala  No. 30, RT 2",Kuala,0.9156638888888889,108.97955555555556,West,,244, N 
WK38, PHAK LIAN SHI KUNG ," Jl. Yos Sudarso Gg. Kelapa Mas, Kuala  No. 69D, RT 1",Kuala,0.9171805555555556,108.97791944444445,West,,227, N 
WK39, FAB LIN KUNG KUNG ," Jl. Yos Sudarso Gg. Kelapa Mas, Kuala , RT 1",Kuala,0.9197944444444444,108.97908333333334,West,,228, N 
WK40, THAI PAK KUNG KUNG ," Jl. Yos Sudarso Gg. Kelapa Mas, Kuala , RT 1",Kuala,0.9198527777777777,108.97914444444444,West,,229, N 
